[{"OBJECT_NAME":"UWE-3","OBJECT_ID":"2013-066AG","EPOCH":"2026-03-03T20:15:47.095776","MEAN_MOTION":14.96096774,"ECCENTRICITY":0.00488145,"INCLINATION":97.8593,"RA_OF_ASC_NODE":18.3537,"ARG_OF_PERICENTER":312.6373,"MEAN_ANOMALY":47.0737,"EPHEMERIS_TYPE":0,"CLASSIFICATION_TYPE":"U","NORAD_CAT_ID":39446,"ELEMENT_SET_NO":999,"REV_AT_EPOCH":66182,"BSTAR":0.000628597,"MEAN_MOTION_DOT":7.18e-5,"MEAN_MOTION_DDOT":0},{"OBJECT_NAME":"UNISAT-6","OBJECT_ID":"2014-033C","EPOCH":"2026-03-04T00:33:36.179424","MEAN_MOTION":14.87585895,"ECCENTRICITY":0.0046387,"INCLINATION":97.7711,"RA_OF_ASC_NODE":217.7181,"ARG_OF_PERICENTER":56.2156,"MEAN_ANOMALY":304.3466,"EPHEMERIS_TYPE":0,"CLASSIFICATION_TYPE":"U","NORAD_CAT_ID":40012,"ELEMENT_SET_NO":999,"REV_AT_EPOCH":63052,"BSTAR":0.00056107,"MEAN_MOTION_DOT":5.144e-5,"MEAN_MOTION_DDOT":0},{"OBJECT_NAME":"DUCHIFAT-1","OBJECT_ID":"2014-033M","EPOCH":"2026-03-04T01:56:54.816864","MEAN_MOTION":15.49015163,"ECCENTRICITY":0.0006589,"INCLINATION":98.0636,"RA_OF_ASC_NODE":108.8507,"ARG_OF_PERICENTER":100.6139,"MEAN_ANOMALY":259.5852,"EPHEMERIS_TYPE":0,"CLASSIFICATION_TYPE":"U","NORAD_CAT_ID":40021,"ELEMENT_SET_NO":999,"REV_AT_EPOCH":63940,"BSTAR":0.0014393,"MEAN_MOTION_DOT":0.00078555,"MEAN_MOTION_DDOT":0},{"OBJECT_NAME":"QB50P1","OBJECT_ID":"2014-033R","EPOCH":"2026-03-03T21:40:47.192736","MEAN_MOTION":15.16365653,"ECCENTRICITY":0.0007737,"INCLINATION":98.0997,"RA_OF_ASC_NODE":66.7953,"ARG_OF_PERICENTER":216.5301,"MEAN_ANOMALY":143.5403,"EPHEMERIS_TYPE":0,"CLASSIFICATION_TYPE":"U","NORAD_CAT_ID":40025,"ELEMENT_SET_NO":999,"REV_AT_EPOCH":63706,"BSTAR":0.00074272,"MEAN_MOTION_DOT":0.00014367,"MEAN_MOTION_DDOT":0},{"OBJECT_NAME":"LILACSAT-2","OBJECT_ID":"2015-049K","EPOCH":"2026-03-04T03:34:54.642720","MEAN_MOTION":15.477805,"ECCENTRICITY":0.0005602,"INCLINATION":97.4812,"RA_OF_ASC_NODE":96.1815,"ARG_OF_PERICENTER":273.1708,"MEAN_ANOMALY":86.8901,"EPHEMERIS_TYPE":0,"CLASSIFICATION_TYPE":"U","NORAD_CAT_ID":40908,"ELEMENT_SET_NO":999,"REV_AT_EPOCH":57948,"BSTAR":0.00045679,"MEAN_MOTION_DOT":0.00023648,"MEAN_MOTION_DDOT":0},{"OBJECT_NAME":"FOX-1A (AO-85)","OBJECT_ID":"2015-058D","EPOCH":"2026-03-04T00:32:50.847072","MEAN_MOTION":14.90296117,"ECCENTRICITY":0.012918,"INCLINATION":64.7735,"RA_OF_ASC_NODE":245.6353,"ARG_OF_PERICENTER":98.1982,"MEAN_ANOMALY":263.3804,"EPHEMERIS_TYPE":0,"CLASSIFICATION_TYPE":"U","NORAD_CAT_ID":40967,"ELEMENT_SET_NO":999,"REV_AT_EPOCH":9789,"BSTAR":0.00051138,"MEAN_MOTION_DOT":5.669e-5,"MEAN_MOTION_DDOT":0},{"OBJECT_NAME":"CAS-2T & KS-1Q","OBJECT_ID":"2016-066G","EPOCH":"2026-03-04T03:58:14.320992","MEAN_MOTION":14.44449866,"ECCENTRICITY":0.0343766,"INCLINATION":98.3898,"RA_OF_ASC_NODE":140.0764,"ARG_OF_PERICENTER":88.1915,"MEAN_ANOMALY":275.8608,"EPHEMERIS_TYPE":0,"CLASSIFICATION_TYPE":"U","NORAD_CAT_ID":41847,"ELEMENT_SET_NO":999,"REV_AT_EPOCH":48963,"BSTAR":0.00030409,"MEAN_MOTION_DOT":2.121e-5,"MEAN_MOTION_DDOT":0},{"OBJECT_NAME":"RADFXSAT (FOX-1B)","OBJECT_ID":"2017-073E","EPOCH":"2026-03-04T02:21:08.912448","MEAN_MOTION":15.10729056,"ECCENTRICITY":0.0155304,"INCLINATION":97.4871,"RA_OF_ASC_NODE":292.5129,"ARG_OF_PERICENTER":331.5543,"MEAN_ANOMALY":27.7272,"EPHEMERIS_TYPE":0,"CLASSIFICATION_TYPE":"U","NORAD_CAT_ID":43017,"ELEMENT_SET_NO":999,"REV_AT_EPOCH":44951,"BSTAR":0.0007168,"MEAN_MOTION_DOT":0.00015828,"MEAN_MOTION_DDOT":0},{"OBJECT_NAME":"DIWATA-2B","OBJECT_ID":"2018-084H","EPOCH":"2026-03-04T04:26:48.878016","MEAN_MOTION":14.9992408,"ECCENTRICITY":0.0011212,"INCLINATION":98.1031,"RA_OF_ASC_NODE":254.9962,"ARG_OF_PERICENTER":143.8581,"MEAN_ANOMALY":216.3401,"EPHEMERIS_TYPE":0,"CLASSIFICATION_TYPE":"U","NORAD_CAT_ID":43678,"ELEMENT_SET_NO":999,"REV_AT_EPOCH":40047,"BSTAR":0.00022877,"MEAN_MOTION_DOT":2.778e-5,"MEAN_MOTION_DDOT":0},{"OBJECT_NAME":"ES'HAIL 2","OBJECT_ID":"2018-090A","EPOCH":"2026-03-04T01:39:38.681280","MEAN_MOTION":1.00271139,"ECCENTRICITY":0.0002624,"INCLINATION":0.0179,"RA_OF_ASC_NODE":225.9576,"ARG_OF_PERICENTER":151.0528,"MEAN_ANOMALY":195.498,"EPHEMERIS_TYPE":0,"CLASSIFICATION_TYPE":"U","NORAD_CAT_ID":43700,"ELEMENT_SET_NO":999,"REV_AT_EPOCH":2662,"BSTAR":0,"MEAN_MOTION_DOT":1.31e-6,"MEAN_MOTION_DDOT":0},{"OBJECT_NAME":"FOX-1CLIFF (AO-95)","OBJECT_ID":"2018-099N","EPOCH":"2026-03-04T03:05:49.542432","MEAN_MOTION":15.24235219,"ECCENTRICITY":0.000884,"INCLINATION":97.4523,"RA_OF_ASC_NODE":123.8824,"ARG_OF_PERICENTER":7.3581,"MEAN_ANOMALY":352.7785,"EPHEMERIS_TYPE":0,"CLASSIFICATION_TYPE":"U","NORAD_CAT_ID":43770,"ELEMENT_SET_NO":999,"REV_AT_EPOCH":39720,"BSTAR":0.00074837,"MEAN_MOTION_DOT":0.00018229,"MEAN_MOTION_DDOT":0},{"OBJECT_NAME":"ITASAT","OBJECT_ID":"2018-099AE","EPOCH":"2026-03-04T02:30:01.417248","MEAN_MOTION":15.17565295,"ECCENTRICITY":0.0012799,"INCLINATION":97.4177,"RA_OF_ASC_NODE":116.746,"ARG_OF_PERICENTER":6.2236,"MEAN_ANOMALY":353.9154,"EPHEMERIS_TYPE":0,"CLASSIFICATION_TYPE":"U","NORAD_CAT_ID":43786,"ELEMENT_SET_NO":999,"REV_AT_EPOCH":39696,"BSTAR":0.00054891,"MEAN_MOTION_DOT":0.00010986,"MEAN_MOTION_DDOT":0},{"OBJECT_NAME":"JY1SAT (JO-97)","OBJECT_ID":"2018-099AX","EPOCH":"2026-03-04T03:04:05.339712","MEAN_MOTION":15.30048255,"ECCENTRICITY":0.000464,"INCLINATION":97.4263,"RA_OF_ASC_NODE":125.805,"ARG_OF_PERICENTER":283.2132,"MEAN_ANOMALY":76.859,"EPHEMERIS_TYPE":0,"CLASSIFICATION_TYPE":"U","NORAD_CAT_ID":43803,"ELEMENT_SET_NO":999,"REV_AT_EPOCH":39754,"BSTAR":0.00092814,"MEAN_MOTION_DOT":0.00026991,"MEAN_MOTION_DDOT":0},{"OBJECT_NAME":"UWE-4","OBJECT_ID":"2018-111E","EPOCH":"2026-03-04T00:30:30.214656","MEAN_MOTION":15.39523721,"ECCENTRICITY":0.0008682,"INCLINATION":97.5853,"RA_OF_ASC_NODE":347.1056,"ARG_OF_PERICENTER":1.361,"MEAN_ANOMALY":358.7657,"EPHEMERIS_TYPE":0,"CLASSIFICATION_TYPE":"U","NORAD_CAT_ID":43880,"ELEMENT_SET_NO":999,"REV_AT_EPOCH":39456,"BSTAR":0.0011555,"MEAN_MOTION_DOT":0.0004557,"MEAN_MOTION_DDOT":0},{"OBJECT_NAME":"TIANYAN 01","OBJECT_ID":"2019-093C","EPOCH":"2026-03-04T03:58:07.203360","MEAN_MOTION":14.86327322,"ECCENTRICITY":0.001503,"INCLINATION":97.7627,"RA_OF_ASC_NODE":137.9343,"ARG_OF_PERICENTER":74.3115,"MEAN_ANOMALY":285.9758,"EPHEMERIS_TYPE":0,"CLASSIFICATION_TYPE":"U","NORAD_CAT_ID":44881,"ELEMENT_SET_NO":999,"REV_AT_EPOCH":33581,"BSTAR":0.00019524,"MEAN_MOTION_DOT":1.67e-5,"MEAN_MOTION_DDOT":0},{"OBJECT_NAME":"RS-44 & BREEZE-KM R/B","OBJECT_ID":"2019-096E","EPOCH":"2026-03-04T00:13:25.299840","MEAN_MOTION":12.79747404,"ECCENTRICITY":0.0218152,"INCLINATION":82.5191,"RA_OF_ASC_NODE":49.5898,"ARG_OF_PERICENTER":30.5711,"MEAN_ANOMALY":330.7895,"EPHEMERIS_TYPE":0,"CLASSIFICATION_TYPE":"U","NORAD_CAT_ID":44909,"ELEMENT_SET_NO":999,"REV_AT_EPOCH":28889,"BSTAR":-1.4901e-5,"MEAN_MOTION_DOT":8.0e-8,"MEAN_MOTION_DDOT":0},{"OBJECT_NAME":"SALSAT","OBJECT_ID":"2020-068K","EPOCH":"2026-03-03T18:42:46.219968","MEAN_MOTION":15.28039347,"ECCENTRICITY":0.00087313,"INCLINATION":97.8847,"RA_OF_ASC_NODE":59.5668,"ARG_OF_PERICENTER":321.6728,"MEAN_ANOMALY":38.3888,"EPHEMERIS_TYPE":0,"CLASSIFICATION_TYPE":"U","NORAD_CAT_ID":46495,"ELEMENT_SET_NO":999,"REV_AT_EPOCH":29925,"BSTAR":0.00046597086,"MEAN_MOTION_DOT":0.00012684,"MEAN_MOTION_DDOT":0}]
